BEIDOU-2 IGSO-1 (C06)   
1 36828U 10036A   26151.45166473 -.00000043  00000+0  00000+0 0  9994
2 36828  54.2996 163.1104 0058769 225.1316 130.9001  1.00277274 57922
BEIDOU-2 G4 (C04)       
1 37210U 10057A   26151.50808743 -.00000101  00000+0  00000+0 0  9997
2 37210   3.6071  69.0494 0004922 205.9405 316.9342  1.00272497 57121
BEIDOU-2 IGSO-2 (C07)   
1 37256U 10068A   26149.93047685 -.00000227  00000+0  00000+0 0  9992
2 37256  47.5822 272.0579 0055238 212.8050 204.6695  1.00287198 56612
BEIDOU-2 IGSO-3 (C08)   
1 37384U 11013A   26148.76080693 -.00000208  00000+0  00000+0 0  9990
2 37384  62.3823  40.3343 0034407 185.4964  42.4945  1.00272941 55467
BEIDOU-2 IGSO-4 (C09)   
1 37763U 11038A   26151.51943152  .00000047  00000+0  00000+0 0  9993
2 37763  54.5976 165.8209 0158670 231.3955 131.4280  1.00288616 54482
BEIDOU-2 IGSO-5 (C10)   
1 37948U 11073A   26150.81414145 -.00000195  00000+0  00000+0 0  9999
2 37948  47.7105 271.7609 0113011 221.7343 139.6248  1.00277079 52966
BEIDOU-2 G5 (C05)       
1 38091U 12008A   26151.51293149  .00000068  00000+0  00000+0 0  9993
2 38091   3.5337  69.8040 0009841 275.9988 146.6246  1.00268000 52206
BEIDOU-2 M3 (C11)       
1 38250U 12018A   26150.46905858 -.00000090  00000+0  00000+0 0  9997
2 38250  55.7733 305.4713 0019757 275.3389  84.4068  1.86229894 95619
BEIDOU-2 M4 (C12)       
1 38251U 12018B   26151.47524833 -.00000083  00000+0  00000+0 0  9992
2 38251  55.6727 304.6528 0010983 278.4597  81.3880  1.86229631 95633
BEIDOU-2 M6 (C14)       
1 38775U 12050B   26151.18504887 -.00000074  00000+0  00000+0 0  9994
2 38775  56.5299  63.4565 0014017 354.4866   5.5022  1.86231092 92991
BEIDOU-2 G6 (C02)       
1 38953U 12059A   26151.37533559 -.00000164  00000+0  00000+0 0  9990
2 38953   4.3806  73.7036 0010445 325.0624  69.2058  1.00269349 49741
BEIDOU-3S IGSO-1S (C31) 
1 40549U 15019A   26150.88011184 -.00000182  00000+0  00000+0 0  9993
2 40549  49.2283 295.6678 0038246 190.6803 171.7347  1.00254613 40900
BEIDOU-3S M2S (C58)     
1 40748U 15037A   26151.14093775 -.00000086  00000+0  00000+0 0  9993
2 40748  54.8867 302.6319 0007652 263.3265  96.5578  1.86232073 73804
BEIDOU-3S M1S (C57)     
1 40749U 15037B   26150.81352779 -.00000088  00000+0  00000+0 0  9991
2 40749  54.8835 302.6319 0003788  59.3014 300.7069  1.86255009 73800
BEIDOU-3S IGSO-2S (C56) 
1 40938U 15053A   26150.78288829 -.00000147  00000+0  00000+0 0  9995
2 40938  49.2488 258.9885 0064743 191.8470 175.2718  1.00264009 39184
BEIDOU-2 IGSO-6 (C13)   
1 41434U 16021A   26150.66393965 -.00000162  00000+0  00000+0 0  9995
2 41434  60.2019  38.2134 0057433 231.7732 311.0428  1.00263194 37302
BEIDOU-2 G7 (C03)       
1 41586U 16037A   26151.52315821 -.00000342  00000+0  00000+0 0  9991
2 41586   1.6802  69.1906 0007337 359.0021 119.7227  1.00273701  6729
BEIDOU-3 M1 (C19)       
1 43001U 17069A   26150.95041993 -.00000075  00000+0  00000+0 0  9996
2 43001  56.6778  63.6518 0011096 322.7752  37.1508  1.86231417 58283
BEIDOU-3 M2 (C20)       
1 43002U 17069B   26150.88912404 -.00000076  00000+0  00000+0 0  9994
2 43002  56.6774  63.6897 0009649 346.7006  13.2763  1.86230794 58273
BEIDOU-3 M7 (C27)       
1 43107U 18003A   26148.48298128 -.00000099  00000+0  00000+0 0  9997
2 43107  54.3463 303.0009 0005067  89.6869 270.3425  1.86228114 56985
BEIDOU-3 M8 (C28)       
1 43108U 18003B   26151.11281748 -.00000087  00000+0  00000+0 0  9999
2 43108  54.3367 302.8911 0002191 270.0590  89.8876  1.86231076 57042
BEIDOU-3 M4 (C22)       
1 43207U 18018A   26149.94478896 -.00000083  00000+0  00000+0 0  9991
2 43207  56.6361  63.7493 0007746  13.0903 346.9273  1.86231318 56409
BEIDOU-3 M3 (C21)       
1 43208U 18018B   26151.08517394 -.00000074  00000+0  00000+0 0  9997
2 43208  56.6362  63.7160 0009103 337.1350  22.8277  1.86231286 56427
BEIDOU-3 M9 (C29)       
1 43245U 18029A   26151.30290042 -.00000084  00000+0  00000+0 0  9994
2 43245  54.2096 300.5388 0000833 126.2127 233.7667  1.86228612 55581
BEIDOU-3 M10 (C30)      
1 43246U 18029B   26148.01561522 -.00000100  00000+0  00000+0 0  9992
2 43246  54.2105 300.6796 0004324  39.6861 320.3160  1.86229076 55506
BEIDOU-2 IGSO-7 (C16)   
1 43539U 18057A   26151.45209807 -.00000011  00000+0  00000+0 0  9996
2 43539  55.1923 163.2035 0104436 237.9813 121.6778  1.00256587 28963
BEIDOU-3 M5 (C23)       
1 43581U 18062A   26150.92457560  .00000081  00000+0  00000+0 0  9997
2 43581  54.0846 182.8909 0005452 288.9532  71.0656  1.86228793 53313
BEIDOU-3 M6 (C24)       
1 43582U 18062B   26151.32492155  .00000078  00000+0  00000+0 0  9998
2 43582  54.0842 182.8664 0004872  10.9313 349.1560  1.86227839 53327
BEIDOU-3 M12 (C26)      
1 43602U 18067A   26151.26331846  .00000079  00000+0  00000+0 0  9999
2 43602  54.1791 181.6139 0007817  30.0855 330.0344  1.86227897 52809
BEIDOU-3 M11 (C25)      
1 43603U 18067B   26150.32441840  .00000086  00000+0  00000+0 0  9990
2 43603  54.1764 181.6095 0004508  14.1807 345.9095  1.86227292 52813
BEIDOU-3 M13 (C32)      
1 43622U 18072A   26150.27932410 -.00000081  00000+0  00000+0 0  9995
2 43622  56.6103  63.2500 0007952 325.6248  34.3239  1.86231313 52323
BEIDOU-3 M14 (C33)      
1 43623U 18072B   26150.14476010 -.00000082  00000+0  00000+0 0  9992
2 43623  56.6118  63.2485 0006528 353.4482   6.5426  1.86231381 52312
BEIDOU-3 M16 (C35)      
1 43647U 18078A   26150.83729939 -.00000087  00000+0  00000+0 0  9996
2 43647  54.1065 300.5941 0007520  40.5399 319.4869  1.86232472 51835
BEIDOU-3 M15 (C34)      
1 43648U 18078B   26150.96659828 -.00000086  00000+0  00000+0 0  9999
2 43648  54.1021 300.5890 0004660  55.4054 304.6096  1.86232504 51852
BEIDOU-3 G1 (C59)       
1 43683U 18085A   26151.50815115 -.00000097  00000+0  00000+0 0  9992
2 43683   2.8274  97.8318 0008512 344.3934 149.6952  1.00272095 27899
BEIDOU-3 M17 (C36)      
1 43706U 18093A   26151.30982267  .00000079  00000+0  00000+0 0  9997
2 43706  54.1681 182.8688 0009913 291.3904 190.5911  1.86228599 51224
BEIDOU-3 M18 (C37)      
1 43707U 18093B   26150.99109428  .00000081  00000+0  00000+0 0  9995
2 43707  54.1688 182.8718 0007772 321.0506  38.9711  1.86226695 51213
BEIDOU-3 IGSO-1 (C38)   
1 44204U 19023A   26141.61780730 -.00000234  00000+0  00000+0 0  9993
2 44204  58.6591  37.9235 0025546 227.4594 312.4431  1.00299087  6947
BEIDOU-2 G8 (C01)       
1 44231U 19027A   26151.52981220 -.00000236  00000+0  00000+0 0  9997
2 44231   1.6174  74.4889 0010360 284.7077 224.9987  1.00268080 25913
BEIDOU-3 IGSO-2 (C39)   
1 44337U 19035A   26149.81036182 -.00000044  00000+0  00000+0 0  9997
2 44337  55.2434 159.0229 0039435 216.0914 283.9191  1.00273018 25485
BEIDOU-3 M24 (C46)      
1 44542U 19061A   26151.05995882  .00000081  00000+0  00000+0 0  9994
2 44542  54.3951 183.3053 0008278 359.5928   0.4849  1.86229197 45477
BEIDOU-3 M23 (C45)      
1 44543U 19061B   26151.19039683  .00000080  00000+0  00000+0 0  9997
2 44543  54.3940 183.2692 0005524 339.6605  19.5746  1.86227612 45473
BEIDOU-3 IGSO-3 (C40)   
1 44709U 19073A   26136.81046384 -.00000217  00000+0  00000+0 0  9995
2 44709  54.8566 281.2355 0042953 189.4588 170.3676  1.00246251 24144
BEIDOU-3 M22 (C44)      
1 44793U 19078A   26150.89947231 -.00000087  00000+0  00000+0 0  9993
2 44793  53.9526 300.4351 0006804  49.7897 310.2407  1.86227442 44323
BEIDOU-3 M21 (C43)      
1 44794U 19078B   26151.03943801 -.00000086  00000+0  00000+0 0  9999
2 44794  53.9253 300.3916 0004700  47.8366 312.1745  1.86227891 44335
BEIDOU-3 M19 (C41)      
1 44864U 19090A   26149.93711311 -.00000084  00000+0  00000+0 0  9994
2 44864  56.5439  63.3933 0018526 297.1897 240.9609  1.86231781 43893
BEIDOU-3 M20 (C42)      
1 44865U 19090B   26151.34086390 -.00000072  00000+0  00000+0 0  9992
2 44865  56.5463  63.3815 0016292 310.5817 178.3068  1.86231756 43907
BEIDOU-3 G2 (C60)       
1 45344U 20017A   26151.51709152 -.00000129  00000+0  00000+0 0  9996
2 45344   2.8318  47.1053 0002865  20.6619  87.4327  1.00271291 23097
BEIDOU-3 G3 (C61)       
1 45807U 20040A   26151.52315821 -.00000342  00000+0  00000+0 0  9990
2 45807   2.4078  67.4221 0003161 332.2141 148.2341  1.00276604 21907
BEIDOU-3 G4 (C62)       
1 56564U 23066A   26151.52903219 -.00000268  00000+0  00000+0 0  9994
2 56564   0.5065 327.3807 0004258 166.8849  85.2745  1.00270377 11229
BEIDOU-3 M28 (C50)      
1 58654U 23207A   26151.11657872 -.00000076  00000+0  00000+0 0  9996
2 58654  55.7383  62.8789 0003736 339.6955  20.2939  1.86229897 16521
BEIDOU-3 M26 (C48)      
1 58655U 23207B   26150.91407094 -.00000078  00000+0  00000+0 0  9995
2 58655  55.7402  62.8723 0003826 314.9877  44.9845  1.86229900 16503
BEIDOU-3 M25 (C47)      
1 61186U 24168B   26151.31047330 -.00000085  00000+0  00000+0 0  9991
2 61186  54.4890 302.8286 0003049 309.3759  73.6603  1.86230392 11477
BEIDOU-3 M27 (C49)      
1 61187U 24168C   26151.07987066 -.00000087  00000+0  00000+0 0  9996
2 61187  54.4847 302.8196 0001973  46.7794 316.6730  1.86230468  8948
